{"type":"FeatureCollection","properties":{"source":"OpenStreetMap contributors, ODbL 1.0","generator":"scripts/fetch_ahmedabad_osm.py"},"features":[{"type":"Feature","properties":{"name":"Sarkhej","place":"town"},"geometry":{"type":"Point","coordinates":[72.50072,22.983483]}},{"type":"Feature","properties":{"name":"Paldi","place":"suburb"},"geometry":{"type":"Point","coordinates":[72.563543,23.014553]}},{"type":"Feature","properties":{"name":"Kankaria","place":"suburb"},"geometry":{"type":"Point","coordinates":[72.594088,23.001763]}},{"type":"Feature","properties":{"name":"Telav","place":"village"},"geometry":{"type":"Point","coordinates":[72.435221,22.983038]}},{"type":"Feature","properties":{"name":"Navrangpura","place":"village"},"geometry":{"type":"Point","coordinates":[72.564343,23.036]}},{"type":"Feature","properties":{"name":"Chenpur","place":"village"},"geometry":{"type":"Point","coordinates":[72.560938,23.102629]}},{"type":"Feature","properties":{"name":"Godrej Garden City","place":"quarter"},"geometry":{"type":"Point","coordinates":[72.553997,23.110956]}},{"type":"Feature","properties":{"name":"Maninagar","place":"suburb"},"geometry":{"type":"Point","coordinates":[72.606717,22.997713]}},{"type":"Feature","properties":{"name":"Jamalpur","place":"suburb"},"geometry":{"type":"Point","coordinates":[72.582062,23.013924]}},{"type":"Feature","properties":{"name":"Gita Mandir","place":"neighbourhood"},"geometry":{"type":"Point","coordinates":[72.593222,23.0152]}},{"type":"Feature","properties":{"name":"Dalal Colony","place":"neighbourhood"},"geometry":{"type":"Point","coordinates":[72.611611,22.992195]}},{"type":"Feature","properties":{"name":"Uttamnagar","place":"neighbourhood"},"geometry":{"type":"Point","coordinates":[72.605386,22.993091]}},{"type":"Feature","properties":{"name":"Sahijpur","place":"suburb"},"geometry":{"type":"Point","coordinates":[72.630223,23.053175]}},{"type":"Feature","properties":{"name":"Naroda","place":"suburb"},"geometry":{"type":"Point","coordinates":[72.65083,23.073259]}},{"type":"Feature","properties":{"name":"Shahibaug","place":"suburb"},"geometry":{"type":"Point","coordinates":[72.596554,23.055636]}},{"type":"Feature","properties":{"name":"Memnagar","place":"suburb"},"geometry":{"type":"Point","coordinates":[72.535169,23.051697]}},{"type":"Feature","properties":{"name":"Vastrapur","place":"suburb"},"geometry":{"type":"Point","coordinates":[72.529042,23.040086]}},{"type":"Feature","properties":{"name":"Jodhpur","place":"suburb"},"geometry":{"type":"Point","coordinates":[72.520432,23.016927]}},{"type":"Feature","properties":{"name":"Jaspur","place":"village"},"geometry":{"type":"Point","coordinates":[72.519846,23.154056]}},{"type":"Feature","properties":{"name":"Nava Naroda","place":"suburb"},"geometry":{"type":"Point","coordinates":[72.673496,23.06874]}},{"type":"Feature","properties":{"name":"Hanspura","place":"village"},"geometry":{"type":"Point","coordinates":[72.681988,23.08108]}},{"type":"Feature","properties":{"name":"Piplaj","place":"village"},"geometry":{"type":"Point","coordinates":[72.560695,22.969877]}},{"type":"Feature","properties":{"name":"Jivraj park","place":"suburb"},"geometry":{"type":"Point","coordinates":[72.536517,23.006332]}},{"type":"Feature","properties":{"name":"vejalpur","place":"suburb"},"geometry":{"type":"Point","coordinates":[72.520842,23.006937]}},{"type":"Feature","properties":{"name":"Makarba","place":"suburb"},"geometry":{"type":"Point","coordinates":[72.504308,22.996342]}},{"type":"Feature","properties":{"name":"Memnagar","place":"suburb"},"geometry":{"type":"Point","coordinates":[72.532931,23.053084]}},{"type":"Feature","properties":{"name":"Akhbar nagar","place":"suburb"},"geometry":{"type":"Point","coordinates":[72.563012,23.067119]}},{"type":"Feature","properties":{"name":"Bodakdev","place":"suburb"},"geometry":{"type":"Point","coordinates":[72.517344,23.044592]}},{"type":"Feature","properties":{"name":"Mumatpura","place":"suburb"},"geometry":{"type":"Point","coordinates":[72.495454,23.018494]}},{"type":"Feature","properties":{"name":"Ranna Park","place":"suburb"},"geometry":{"type":"Point","coordinates":[72.562817,22.999914]}},{"type":"Feature","properties":{"name":"Gulbai tekra","place":"suburb"},"geometry":{"type":"Point","coordinates":[72.548963,23.026574]}},{"type":"Feature","properties":{"name":"Ramdev nagar","place":"suburb"},"geometry":{"type":"Point","coordinates":[72.512094,23.026444]}},{"type":"Feature","properties":{"name":"Nirnay Nagar","place":"suburb"},"geometry":{"type":"Point","coordinates":[72.552446,23.069796]}},{"type":"Feature","properties":{"name":"Usmanpura","place":"suburb"},"geometry":{"type":"Point","coordinates":[72.567262,23.049486]}},{"type":"Feature","properties":{"name":"Panjrapole","place":"suburb"},"geometry":{"type":"Point","coordinates":[72.543308,23.027547]}},{"type":"Feature","properties":{"name":"Madhupura","place":"suburb"},"geometry":{"type":"Point","coordinates":[72.590791,23.043354]}},{"type":"Feature","properties":{"name":"Pratapnagar","place":"suburb"},"geometry":{"type":"Point","coordinates":[72.616789,23.018721]}},{"type":"Feature","properties":{"name":"Bhat","place":"suburb"},"geometry":{"type":"Point","coordinates":[72.632935,23.102677]}},{"type":"Feature","properties":{"name":"Koteshwar","place":"village"},"geometry":{"type":"Point","coordinates":[72.613575,23.096894]}},{"type":"Feature","properties":{"name":"Naranpura","place":"suburb"},"geometry":{"type":"Point","coordinates":[72.550858,23.056713]}},{"type":"Feature","properties":{"name":"Nava-Vadaj","place":"suburb"},"geometry":{"type":"Point","coordinates":[72.564099,23.068224]}},{"type":"Feature","properties":{"name":"Chanakyapuri","place":"suburb"},"geometry":{"type":"Point","coordinates":[72.534872,23.086171]}},{"type":"Feature","properties":{"name":"Ranip","place":"suburb"},"geometry":{"type":"Point","coordinates":[72.57642,23.076623]}},{"type":"Feature","properties":{"name":"Sabarmati","place":"suburb"},"geometry":{"type":"Point","coordinates":[72.587619,23.083993]}},{"type":"Feature","properties":{"name":"Prahladnagar","place":"suburb"},"geometry":{"type":"Point","coordinates":[72.509293,23.011446]}},{"type":"Feature","properties":{"name":"Thaltej","place":"suburb"},"geometry":{"type":"Point","coordinates":[72.511742,23.048539]}},{"type":"Feature","properties":{"name":"Manek Chowk","place":"quarter"},"geometry":{"type":"Point","coordinates":[72.588952,23.02318]}},{"type":"Feature","properties":{"name":"Revdi Bazar","place":"suburb"},"geometry":{"type":"Point","coordinates":[72.598538,23.026847]}},{"type":"Feature","properties":{"name":"Vasna","place":"suburb"},"geometry":{"type":"Point","coordinates":[72.547241,23.002005]}},{"type":"Feature","properties":{"name":"Amraiwadi","place":"suburb"},"geometry":{"type":"Point","coordinates":[72.626982,23.005757]}},{"type":"Feature","properties":{"name":"Rajpur Gomtipur","place":"suburb"},"geometry":{"type":"Point","coordinates":[72.620581,23.013696]}},{"type":"Feature","properties":{"name":"Dudheshwar","place":"suburb"},"geometry":{"type":"Point","coordinates":[72.584138,23.055955]}},{"type":"Feature","properties":{"name":"Godhavi","place":"village"},"geometry":{"type":"Point","coordinates":[72.408709,23.02332]}},{"type":"Feature","properties":{"name":"Ghuma","place":"suburb"},"geometry":{"type":"Point","coordinates":[72.450601,23.029511]}},{"type":"Feature","properties":{"name":"Shastri Nagar","place":"suburb"},"geometry":{"type":"Point","coordinates":[72.637243,23.030238]}},{"type":"Feature","properties":{"name":"Thakkarabapa Nagar","place":"suburb"},"geometry":{"type":"Point","coordinates":[72.642979,23.040439]}},{"type":"Feature","properties":{"name":"Behrampura","place":"suburb"},"geometry":{"type":"Point","coordinates":[72.58384,23.003589]}},{"type":"Feature","properties":{"name":"Bhavna colony","place":"suburb"},"geometry":{"type":"Point","coordinates":[72.581812,23.003417]}},{"type":"Feature","properties":{"name":"Karmachari Nagar","place":"suburb"},"geometry":{"type":"Point","coordinates":[72.539069,23.065005]}},{"type":"Feature","properties":{"name":"Khadia","place":"suburb"},"geometry":{"type":"Point","coordinates":[72.589292,23.02139]}},{"type":"Feature","properties":{"name":"Khokhra","place":"suburb"},"geometry":{"type":"Point","coordinates":[72.618632,23.000842]}},{"type":"Feature","properties":{"name":"Maninagar East","place":"suburb"},"geometry":{"type":"Point","coordinates":[72.61372,22.999355]}},{"type":"Feature","properties":{"name":"Mehmdabad - Khokhra","place":"suburb"},"geometry":{"type":"Point","coordinates":[72.615774,23.000163]}},{"type":"Feature","properties":{"name":"Isanpur","place":"suburb"},"geometry":{"type":"Point","coordinates":[72.601295,22.98113]}},{"type":"Feature","properties":{"name":"Ramol -Jantanagar","place":"suburb"},"geometry":{"type":"Point","coordinates":[72.645876,22.986721]}},{"type":"Feature","properties":{"name":"Jantanagar -Ramol","place":"suburb"},"geometry":{"type":"Point","coordinates":[72.630334,23.008022]}},{"type":"Feature","properties":{"name":"Dariyapur","place":"suburb"},"geometry":{"type":"Point","coordinates":[72.595589,23.033446]}},{"type":"Feature","properties":{"name":"Girdharnagar","place":"suburb"},"geometry":{"type":"Point","coordinates":[72.597892,23.050214]}},{"type":"Feature","properties":{"name":"Sukhrampura","place":"suburb"},"geometry":{"type":"Point","coordinates":[72.61466,23.022545]}},{"type":"Feature","properties":{"name":"Kalapi nagar","place":"suburb"},"geometry":{"type":"Point","coordinates":[72.617628,23.050658]}},{"type":"Feature","properties":{"name":"Shah E Alam Roza","place":"suburb"},"geometry":{"type":"Point","coordinates":[72.589392,22.994174]}},{"type":"Feature","properties":{"name":"Shilaj","place":"suburb"},"geometry":{"type":"Point","coordinates":[72.472076,23.054437]}},{"type":"Feature","properties":{"name":"DaniLimda","place":"suburb"},"geometry":{"type":"Point","coordinates":[72.583392,22.996694]}},{"type":"Feature","properties":{"name":"Ashapur","place":"village"},"geometry":{"type":"Point","coordinates":[72.515793,22.933069]}},{"type":"Feature","properties":{"name":"\u0ab8\u0abe\u0a82\u0aa4\u0ac7\u0a9c","place":"village"},"geometry":{"type":"Point","coordinates":[72.474194,23.108199]}},{"type":"Feature","properties":{"name":"New Ranip","place":"suburb"},"geometry":{"type":"Point","coordinates":[72.561323,23.092529]}},{"type":"Feature","properties":{"name":"Rambag","place":"suburb"},"geometry":{"type":"Point","coordinates":[72.599686,22.9982]}},{"type":"Feature","properties":{"name":"Lambha","place":"village"},"geometry":{"type":"Point","coordinates":[72.574942,22.931773]}},{"type":"Feature","properties":{"name":"Ghatlodiya","place":"suburb"},"geometry":{"type":"Point","coordinates":[72.549728,23.075569]}},{"type":"Feature","properties":{"name":"Sherkotda","place":"suburb"},"geometry":{"type":"Point","coordinates":[72.601462,23.012973]}},{"type":"Feature","properties":{"name":"Sarangpur","place":"suburb"},"geometry":{"type":"Point","coordinates":[72.59979,23.019776]}},{"type":"Feature","properties":{"name":"\u0a93\u0a97\u0aa3\u0a9c","place":"village"},"geometry":{"type":"Point","coordinates":[72.51368,23.117792]}},{"type":"Feature","properties":{"name":"Bhagvat","place":"suburb"},"geometry":{"type":"Point","coordinates":[72.523811,23.088062]}},{"type":"Feature","properties":{"name":"Ambawadi","place":"suburb"},"geometry":{"type":"Point","coordinates":[72.549083,23.022612]}},{"type":"Feature","properties":{"name":"Sahijpur boga","place":"suburb"},"geometry":{"type":"Point","coordinates":[72.629966,23.056294]}},{"type":"Feature","properties":{"name":"Asarwa","place":"suburb"},"geometry":{"type":"Point","coordinates":[72.608805,23.047249]}},{"type":"Feature","properties":{"name":"Meghaninagar","place":"suburb"},"geometry":{"type":"Point","coordinates":[72.615645,23.055642]}},{"type":"Feature","properties":{"name":"Chandkheda","place":"suburb"},"geometry":{"type":"Point","coordinates":[72.58112,23.110064]}},{"type":"Feature","properties":{"name":"Rancharda","place":"village"},"geometry":{"type":"Point","coordinates":[72.44105,23.069641]}},{"type":"Feature","properties":{"name":"Ranchhod pura","place":"village"},"geometry":{"type":"Point","coordinates":[72.45371,23.087492]}},{"type":"Feature","properties":{"name":"Palodiya","place":"village"},"geometry":{"type":"Point","coordinates":[72.439765,23.055261]}},{"type":"Feature","properties":{"name":"Bhadaj","place":"village"},"geometry":{"type":"Point","coordinates":[72.483504,23.086873]}},{"type":"Feature","properties":{"name":"Tragad","place":"village"},"geometry":{"type":"Point","coordinates":[72.558657,23.128347]}},{"type":"Feature","properties":{"name":"Kochrab","place":"suburb"},"geometry":{"type":"Point","coordinates":[72.56892,23.015534]}},{"type":"Feature","properties":{"name":"Rabari Colony","place":"suburb"},"geometry":{"type":"Point","coordinates":[72.633568,23.003119]}},{"type":"Feature","properties":{"name":"Vastral","place":"suburb"},"geometry":{"type":"Point","coordinates":[72.662443,22.994866]}},{"type":"Feature","properties":{"name":"Narol gam","place":"suburb"},"geometry":{"type":"Point","coordinates":[72.597785,22.948393]}},{"type":"Feature","properties":{"name":"Ambavadi / kubernagar","place":"suburb"},"geometry":{"type":"Point","coordinates":[72.63405,23.080409]}},{"type":"Feature","properties":{"name":"Sarangpur","place":"suburb"},"geometry":{"type":"Point","coordinates":[72.607308,23.027588]}},{"type":"Feature","properties":{"name":"Ambapur","place":"village"},"geometry":{"type":"Point","coordinates":[72.60949,23.150483]}},{"type":"Feature","properties":{"name":"Sola","place":"suburb"},"geometry":{"type":"Point","coordinates":[72.511131,23.069237]}},{"type":"Feature","properties":{"name":"Quresh Nagar Society","place":"quarter"},"geometry":{"type":"Point","coordinates":[72.516564,22.995495]}},{"type":"Feature","properties":{"name":"Barejadi","place":"town"},"geometry":{"type":"Point","coordinates":[72.678244,22.895925]}},{"type":"Feature","properties":{"name":"\u0ab5\u0aa1\u0ab8\u0ab0","place":"village"},"geometry":{"type":"Point","coordinates":[72.471024,23.15429]}},{"type":"Feature","properties":{"name":"Kaneti","place":"village"},"geometry":{"type":"Point","coordinates":[72.401638,23.002163]}},{"type":"Feature","properties":{"name":"\u0a95\u0ac1\u0a9c\u0abe\u0aa1","place":"village"},"geometry":{"type":"Point","coordinates":[72.732915,23.006673]}},{"type":"Feature","properties":{"name":"\u0a95\u0aa3\u0aad\u0abe","place":"village"},"geometry":{"type":"Point","coordinates":[72.730919,23.010544]}},{"type":"Feature","properties":{"name":"Gota","place":"suburb"},"geometry":{"type":"Point","coordinates":[72.540836,23.101]}},{"type":"Feature","properties":{"name":"Khodiyar Nagar","place":"neighbourhood"},"geometry":{"type":"Point","coordinates":[72.543073,23.06384]}},{"type":"Feature","properties":{"name":"Amiyapur","place":"neighbourhood"},"geometry":{"type":"Point","coordinates":[72.616035,23.124267]}},{"type":"Feature","properties":{"name":"\u0ab9\u0abe\u0aa5\u0ac0\u0a9c\u0aa3","place":"village"},"geometry":{"type":"Point","coordinates":[72.667447,22.941114]}},{"type":"Feature","properties":{"name":"\u0ab0\u0abe\u0ab8\u0acd\u0a95\u0abe","place":"village"},"geometry":{"type":"Point","coordinates":[72.715373,22.893631]}},{"type":"Feature","properties":{"name":"\u0ab2\u0aaa\u0a95\u0abe\u0aae\u0aa3","place":"village"},"geometry":{"type":"Point","coordinates":[72.498087,23.128738]}},{"type":"Feature","properties":{"name":"Kasindra","place":"village"},"geometry":{"type":"Point","coordinates":[72.491093,22.892798]}},{"type":"Feature","properties":{"name":"\u0a96\u0abe\u0aa4\u0acd\u0ab0\u0a9c","place":"village"},"geometry":{"type":"Point","coordinates":[72.444223,23.136512]}}]}