{"type":"FeatureCollection","properties":{"source":"OpenStreetMap contributors, ODbL 1.0","generator":"scripts/fetch_ahmedabad_osm.py","bbox":[22.88,72.4,23.16,72.78],"thin_metres":150.0},"features":[{"type":"Feature","properties":{"corridor":"SG-HIGHWAY","name":"Sarkhej\u2013Gandhinagar Highway","role":"north\u2013south arterial, west city","shape":"linear","length_km":21.963,"vertices":88,"source_vertices":406},"geometry":{"type":"LineString","coordinates":[[72.488485,22.975319],[72.49004,22.976935],[72.491439,22.97831],[72.492424,22.979487],[72.492933,22.981251],[72.493357,22.982663],[72.493853,22.984215],[72.494407,22.986003],[72.494962,22.987317],[72.49553,22.989573],[72.49623,22.991349],[72.4967,22.993357],[72.505467,23.021327],[72.506401,23.02387],[72.506831,23.025675],[72.50727,23.027058],[72.50788,23.028583],[72.508379,23.030498],[72.508835,23.031981],[72.509398,23.033677],[72.510396,23.035487],[72.511652,23.038056],[72.512411,23.039624],[72.513125,23.041004],[72.51368,23.042416],[72.514853,23.044515],[72.515551,23.045928],[72.51612,23.047379],[72.516944,23.048843],[72.517969,23.051399],[72.518426,23.052735],[72.51903,23.055333],[72.519635,23.056883],[72.520082,23.058374],[72.520402,23.059905],[72.520785,23.061259],[72.52144,23.06342],[72.52203,23.064697],[72.522346,23.066334],[72.523065,23.068226],[72.523338,23.069809],[72.523788,23.071659],[72.524223,23.073268],[72.524748,23.074541],[72.525275,23.076258],[72.525792,23.078326],[72.52627,23.079974],[72.528201,23.086239],[72.528572,23.087622],[72.529367,23.090784],[72.529726,23.092123],[72.530303,23.093594],[72.531172,23.097033],[72.531722,23.098474],[72.532387,23.100842],[72.533001,23.102899],[72.533381,23.104788],[72.534098,23.106612],[72.534483,23.107958],[72.534864,23.109306],[72.535841,23.113246],[72.536493,23.11481],[72.537,23.116548],[72.537801,23.119296],[72.538334,23.121802],[72.53912,23.124394],[72.539801,23.126202],[72.54048,23.129127],[72.540911,23.130622],[72.541644,23.133071],[72.542385,23.13509],[72.54282,23.136625],[72.543425,23.138624],[72.543883,23.140103],[72.544471,23.141587],[72.545211,23.143048],[72.546151,23.144649],[72.547051,23.145995],[72.547874,23.147187],[72.548681,23.148376],[72.549599,23.149695],[72.550542,23.151106],[72.553039,23.154978],[72.553834,23.156201],[72.555123,23.158203],[72.556254,23.159918],[72.557522,23.161098],[72.559196,23.1622]]}},{"type":"Feature","properties":{"corridor":"SP-RING","name":"Sardar Patel Ring Road","role":"orbital, links every radial corridor","shape":"ring","length_km":72.79,"vertices":243,"source_vertices":1265},"geometry":{"type":"LineString","coordinates":[[72.479136,23.020768],[72.479853,23.019542],[72.480244,23.018198],[72.480164,23.016679],[72.479695,23.015381],[72.475801,23.00492],[72.475233,23.003383],[72.473709,22.999407],[72.472894,22.997295],[72.472615,22.995207],[72.471074,22.983238],[72.470969,22.98149],[72.471016,22.979142],[72.471421,22.977431],[72.472063,22.975888],[72.472909,22.973814],[72.474108,22.971347],[72.474921,22.969468],[72.475101,22.967791],[72.474916,22.965884],[72.474967,22.963639],[72.475378,22.962077],[72.47635,22.960263],[72.477367,22.95847],[72.478207,22.957108],[72.479299,22.955634],[72.480158,22.953966],[72.481105,22.952426],[72.483463,22.948604],[72.484472,22.946987],[72.485462,22.945694],[72.486437,22.94382],[72.487654,22.942621],[72.492621,22.93945],[72.494182,22.938477],[72.497296,22.937261],[72.499319,22.936553],[72.503473,22.936162],[72.508784,22.935771],[72.513532,22.935419],[72.518638,22.934957],[72.520277,22.934647],[72.522117,22.934616],[72.524426,22.934265],[72.528932,22.933998],[72.532175,22.933737],[72.533723,22.933532],[72.538241,22.929821],[72.540541,22.92793],[72.543106,22.925832],[72.54501,22.9248],[72.546572,22.924027],[72.548126,22.923904],[72.550488,22.923827],[72.554379,22.924099],[72.556759,22.924281],[72.558803,22.924316],[72.56309,22.924626],[72.56717,22.925134],[72.571608,22.925642],[72.573148,22.925807],[72.576774,22.927069],[72.578518,22.927642],[72.581515,22.928041],[72.582917,22.928265],[72.587945,22.92916],[72.590302,22.929438],[72.594267,22.929548],[72.595788,22.929642],[72.598748,22.929588],[72.601937,22.929706],[72.603681,22.929978],[72.607198,22.930884],[72.608809,22.931191],[72.611121,22.931794],[72.617099,22.933519],[72.620763,22.934494],[72.624723,22.935545],[72.627122,22.936044],[72.628823,22.936499],[72.631494,22.936972],[72.633075,22.937275],[72.635177,22.938281],[72.640031,22.941206],[72.642097,22.942352],[72.643733,22.943287],[72.64536,22.944218],[72.646816,22.945226],[72.647989,22.946019],[72.64897,22.947214],[72.653623,22.953396],[72.659164,22.962007],[72.65972,22.964803],[72.660068,22.966248],[72.660616,22.9687],[72.660948,22.970167],[72.661328,22.971711],[72.661731,22.973323],[72.662276,22.975671],[72.662681,22.977247],[72.662762,22.97861],[72.662952,22.980486],[72.663258,22.982259],[72.663728,22.983806],[72.663968,22.985079],[72.664187,22.986574],[72.664547,22.987897],[72.664865,22.989062],[72.664924,22.990342],[72.665199,22.992976],[72.665898,22.997707],[72.666279,22.999884],[72.666875,23.001787],[72.667393,23.003335],[72.669838,23.013272],[72.67029,23.015457],[72.671475,23.018937],[72.671596,23.020035],[72.671988,23.021096],[72.672441,23.023033],[72.673015,23.025107],[72.673807,23.027883],[72.674109,23.029083],[72.674615,23.03038],[72.675988,23.033365],[72.679681,23.042637],[72.68019,23.043909],[72.681594,23.047441],[72.682449,23.049099],[72.683763,23.051162],[72.685404,23.053672],[72.688407,23.058265],[72.689499,23.060599],[72.688376,23.074758],[72.688255,23.076688],[72.687992,23.078375],[72.687663,23.079848],[72.687585,23.081439],[72.687515,23.083158],[72.687465,23.08492],[72.687266,23.088586],[72.687175,23.091438],[72.686972,23.093228],[72.686331,23.096262],[72.685851,23.09805],[72.685354,23.100815],[72.684925,23.102626],[72.683942,23.10462],[72.682587,23.106078],[72.681076,23.107139],[72.679191,23.108744],[72.67749,23.109659],[72.675698,23.110434],[72.673781,23.110877],[72.671843,23.111641],[72.669872,23.112151],[72.668478,23.113186],[72.666308,23.113524],[72.664262,23.113862],[72.662415,23.114199],[72.698092,23.154307],[72.658369,23.114936],[72.6567,23.115305],[72.654598,23.11532],[72.652672,23.115367],[72.649095,23.115392],[72.646399,23.115342],[72.644292,23.115306],[72.640385,23.115192],[72.635747,23.115865],[72.634393,23.116287],[72.632441,23.116543],[72.630952,23.116697],[72.62861,23.117447],[72.627137,23.117689],[72.625687,23.117823],[72.624062,23.117612],[72.609756,23.12111],[72.608575,23.121756],[72.604467,23.123475],[72.594446,23.127791],[72.592588,23.12858],[72.590952,23.129279],[72.579689,23.131436],[72.576013,23.131886],[72.571403,23.132393],[72.567338,23.132963],[72.564552,23.133343],[72.562928,23.13356],[72.561225,23.133889],[72.559068,23.134162],[72.556178,23.134662],[72.554511,23.134788],[72.552811,23.134957],[72.55032,23.135203],[72.546731,23.135563],[72.544821,23.135597],[72.542997,23.13611],[72.541223,23.136189],[72.539282,23.136539],[72.537426,23.136643],[72.531114,23.135688],[72.528352,23.134828],[72.52599,23.133769],[72.524005,23.132605],[72.521054,23.130461],[72.517821,23.12811],[72.512125,23.123978],[72.510416,23.122664],[72.504639,23.116324],[72.503924,23.114492],[72.503204,23.112922],[72.502164,23.109745],[72.501238,23.107567],[72.500246,23.104862],[72.499667,23.103001],[72.498307,23.099687],[72.497606,23.097793],[72.496872,23.095459],[72.495693,23.092661],[72.495276,23.091156],[72.494514,23.089079],[72.490794,23.079011],[72.490336,23.077751],[72.488997,23.074107],[72.488481,23.072704],[72.48783,23.070949],[72.487057,23.069211],[72.486562,23.067685],[72.485369,23.065305],[72.482688,23.060147],[72.48198,23.058727],[72.481048,23.055844],[72.480465,23.054047],[72.480044,23.05286],[72.479786,23.0515],[72.479863,23.049785],[72.480137,23.047099],[72.480264,23.045378],[72.480115,23.043128],[72.479147,23.037931],[72.479011,23.036403],[72.478538,23.034316]]}},{"type":"Feature","properties":{"corridor":"ASHRAM-ROAD","name":"Ashram Road","role":"north\u2013south spine, city centre","shape":"linear","length_km":9.116,"vertices":40,"source_vertices":509},"geometry":{"type":"LineString","coordinates":[[72.537843,22.996428],[72.540118,22.997121],[72.541829,22.997919],[72.54397,22.998753],[72.545671,22.999665],[72.546826,23.000678],[72.547773,23.001784],[72.550347,23.002288],[72.561021,23.008573],[72.562333,23.009581],[72.562989,23.010962],[72.56378,23.012435],[72.564621,23.013706],[72.565725,23.015032],[72.566716,23.016227],[72.567658,23.017395],[72.568726,23.01869],[72.569742,23.019878],[72.570667,23.020992],[72.571329,23.022243],[72.571288,23.023792],[72.571347,23.025337],[72.571238,23.026931],[72.570647,23.028891],[72.570514,23.030447],[72.570274,23.032174],[72.569374,23.034248],[72.568816,23.036179],[72.569976,23.04487],[72.570176,23.046277],[72.570829,23.047594],[72.571224,23.049464],[72.571416,23.05185],[72.571414,23.053872],[72.571546,23.055324],[72.574849,23.05617],[72.577232,23.057582],[72.57878,23.058882],[72.583001,23.06646],[72.58197,23.068454]]}},{"type":"Feature","properties":{"corridor":"CG-ROAD","name":"Chimanlal Girdharlal Road","role":"central commercial street","shape":"linear","length_km":3.336,"vertices":19,"source_vertices":242},"geometry":{"type":"LineString","coordinates":[[72.564391,23.01047],[72.561886,23.012073],[72.559988,23.01367],[72.557607,23.018984],[72.557057,23.020495],[72.556428,23.021929],[72.555995,23.023561],[72.556233,23.024962],[72.556869,23.026339],[72.557725,23.028028],[72.558503,23.029356],[72.559214,23.030692],[72.559931,23.032231],[72.560401,23.033564],[72.560694,23.035097],[72.561166,23.036475],[72.561983,23.037934],[72.563294,23.039213],[72.568611,23.04023]]}},{"type":"Feature","properties":{"corridor":"132FT-RING","name":"132 Ft. Ring Road","role":"inner ring, east\u2013west link","shape":"ring","length_km":18.312,"vertices":43,"source_vertices":420},"geometry":{"type":"LineString","coordinates":[[72.539655,23.041727],[72.539355,23.041306],[72.539072,23.040853],[72.53862,23.040003],[72.538342,23.039391],[72.537974,23.038632],[72.537538,23.037741],[72.537058,23.036805],[72.536626,23.035892],[72.536242,23.034899],[72.53487,23.033011],[72.532696,23.030355],[72.531711,23.028236],[72.530114,23.021041],[72.530081,23.018617],[72.530254,23.016143],[72.530633,23.013456],[72.532887,23.006625],[72.534262,23.003926],[72.535752,23.00065],[72.537603,22.996731],[72.581553,23.068334],[72.577293,23.067545],[72.574554,23.067792],[72.571716,23.067555],[72.569154,23.067532],[72.567056,23.067689],[72.564667,23.067587],[72.562752,23.067532],[72.55823,23.065818],[72.556178,23.064811],[72.554271,23.063218],[72.552716,23.062095],[72.551172,23.060057],[72.549841,23.058479],[72.548738,23.05654],[72.545637,23.049814],[72.545139,23.049456],[72.544779,23.048983],[72.544545,23.04846],[72.544011,23.047765],[72.540367,23.042632],[72.540232,23.042246]]}},{"type":"Feature","properties":{"corridor":"120FT-RING","name":"120 Feet Ring Road","role":"inner ring east, east\u2013west link","shape":"ring","length_km":14.765,"vertices":51,"source_vertices":530},"geometry":{"type":"LineString","coordinates":[[72.543036,23.024864],[72.542829,23.023847],[72.542757,23.022821],[72.543053,23.021949],[72.543265,23.020899],[72.543524,23.019996],[72.543793,23.018869],[72.544262,23.017873],[72.544533,23.016581],[72.548171,23.00921],[72.54937,23.008038],[72.550545,23.007145],[72.551577,23.006128],[72.55275,23.004912],[72.567311,22.9951],[72.569543,22.99529],[72.571974,22.995859],[72.575539,22.995992],[72.577969,22.996681],[72.580193,22.998005],[72.582226,22.999315],[72.584594,23.000674],[72.587449,23.001416],[72.570474,23.046959],[72.568493,23.04692],[72.566412,23.046736],[72.562885,23.047364],[72.561226,23.047564],[72.559428,23.047605],[72.557713,23.047487],[72.556144,23.047254],[72.554499,23.046847],[72.552801,23.046299],[72.551354,23.045454],[72.550067,23.044072],[72.54916,23.042684],[72.548762,23.040648],[72.548754,23.038394],[72.54865,23.036622],[72.548933,23.034788],[72.549405,23.032947],[72.54935,23.031831],[72.548915,23.03116],[72.548297,23.030477],[72.547586,23.029967],[72.547,23.029382],[72.546358,23.028769],[72.545657,23.027926],[72.544842,23.027268],[72.544055,23.026401],[72.543333,23.025466]]}},{"type":"Feature","properties":{"corridor":"SH2-EAST","name":"Rakhial\u2013Odhav Road","role":"east\u2013west corridor, east city","shape":"linear","length_km":7.559,"vertices":41,"source_vertices":251},"geometry":{"type":"LineString","coordinates":[[72.598929,23.022992],[72.600703,23.021405],[72.602709,23.02059],[72.604929,23.020501],[72.607053,23.02069],[72.608641,23.020985],[72.610361,23.021455],[72.612164,23.021887],[72.613874,23.022091],[72.615847,23.022126],[72.617723,23.022181],[72.619622,23.022218],[72.621206,23.022147],[72.62286,23.02159],[72.62437,23.021112],[72.625884,23.020796],[72.62771,23.020213],[72.629646,23.020089],[72.631239,23.020074],[72.632771,23.020168],[72.634589,23.020038],[72.637558,23.020453],[72.639211,23.0207],[72.641098,23.020996],[72.642581,23.021236],[72.644659,23.021403],[72.646564,23.021669],[72.648072,23.021933],[72.64991,23.022201],[72.651378,23.02252],[72.653165,23.022784],[72.654903,23.023027],[72.657164,23.023345],[72.659275,23.023544],[72.66094,23.023797],[72.662673,23.024037],[72.665468,23.024441],[72.666928,23.024765],[72.668679,23.024776],[72.670554,23.024946],[72.672454,23.024836]]}},{"type":"Feature","properties":{"corridor":"NARODA-ROAD","name":"Naroda Road","role":"north-east radial","shape":"linear","length_km":5.849,"vertices":30,"source_vertices":159},"geometry":{"type":"LineString","coordinates":[[72.598784,23.031171],[72.600232,23.032751],[72.604405,23.034335],[72.605559,23.035676],[72.606738,23.036711],[72.607811,23.037933],[72.608691,23.039096],[72.610054,23.040094],[72.611393,23.040913],[72.612634,23.041833],[72.614333,23.043201],[72.616419,23.044598],[72.617895,23.04568],[72.619174,23.046564],[72.620658,23.047512],[72.622327,23.048593],[72.623811,23.049561],[72.62532,23.050718],[72.627162,23.051768],[72.628405,23.05272],[72.630134,23.053842],[72.63165,23.054816],[72.633369,23.05578],[72.634881,23.056737],[72.636631,23.057969],[72.638014,23.059185],[72.639027,23.060393],[72.640111,23.061659],[72.641432,23.063306],[72.64248,23.064546]]}},{"type":"Feature","properties":{"corridor":"NAROL-SARKHEJ","name":"Narol\u2013Sarkhej Road","role":"east\u2013west corridor, south city","shape":"linear","length_km":5.658,"vertices":21,"source_vertices":99},"geometry":{"type":"LineString","coordinates":[[72.582955,22.97282],[72.579506,22.97317],[72.572184,22.973824],[72.570083,22.974172],[72.568482,22.974342],[72.566119,22.974593],[72.561292,22.975001],[72.558632,22.97539],[72.553013,22.97586],[72.550892,22.97608],[72.549072,22.976488],[72.547552,22.97706],[72.546273,22.977856],[72.545311,22.979166],[72.544055,22.980855],[72.541094,22.985031],[72.539927,22.986659],[72.537773,22.989448],[72.536588,22.99136],[72.535448,22.992947],[72.534425,22.994362]]}},{"type":"Feature","properties":{"corridor":"AHM-VAD-EXPWY","name":"Ahmedabad\u2013Vadodara Expressway","role":"south-east intercity approach","shape":"linear","length_km":21.88,"vertices":55,"source_vertices":142},"geometry":{"type":"LineString","coordinates":[[72.8017,22.872042],[72.800661,22.874209],[72.799785,22.875704],[72.798738,22.877048],[72.797863,22.878432],[72.796712,22.879483],[72.795305,22.880946],[72.793983,22.882433],[72.78958,22.886845],[72.784705,22.891416],[72.77783,22.898311],[72.772766,22.903323],[72.770826,22.905466],[72.768525,22.907453],[72.763839,22.912226],[72.762064,22.91392],[72.759668,22.916266],[72.758501,22.917285],[72.757273,22.918202],[72.755196,22.919301],[72.753119,22.920582],[72.745858,22.924131],[72.741626,22.926044],[72.737564,22.928071],[72.733373,22.930135],[72.728948,22.932333],[72.726562,22.933497],[72.724806,22.93438],[72.72286,22.935478],[72.718362,22.938024],[72.711344,22.941997],[72.703397,22.94663],[72.700383,22.948091],[72.698617,22.949023],[72.695525,22.950858],[72.690482,22.953415],[72.686377,22.955772],[72.681223,22.958392],[72.676756,22.960949],[72.671822,22.963446],[72.663563,22.968151],[72.661684,22.969215],[72.659826,22.970302],[72.65772,22.971651],[72.653804,22.973901],[72.650862,22.975401],[72.647171,22.977561],[72.643354,22.979742],[72.642049,22.98049],[72.638624,22.982624],[72.636942,22.983592],[72.635023,22.984689],[72.632756,22.985833],[72.631321,22.986654],[72.628849,22.988087]]}}]}